*******************************************************************************
JPL/HORIZONS                 89 Julia (A866 PA)            2020-Jun-20 08:07:47
Rec #:      89 (+COV) Soln.date: 2020-May-20_00:58:15   # obs: 2394 (1866-2020)
 
IAU76/J2000 helio. ecliptic osc. elements (au, days, deg., period=Julian yrs):
 
  EPOCH=  2453732.5 ! 2005-Dec-28.00 (TDB)         Residual RMS= .39308
   EC= .1837312666221738   QR= 2.081866096774532   TP= 2453567.0609451835
   OM= 311.6536862157482   W=  45.05611871166028   IN= 16.13919230327614
   A= 2.550466545692004    MA= 40.03249583876485   ADIST= 3.019066994609476
   PER= 4.07322            N= .241977294           ANGMOM= .027004392
   DAN= 2.18126            DDN= 2.83193            L= 355.5581864
   B= 11.3468649           MOID= 1.10221004        TP= 2005-Jul-15.5609451835
 
Asteroid physical parameters (km, seconds, rotational period in hours):
   GM= n.a.                RAD= 72.7415            ROTPER= 11.387
   H= 6.8                  G= .150                 B-V= .859
                           ALBEDO= .189            STYP= K
 
ASTEROID comments: 
1: soln ref.= JPL#108, OCC=0
2: source=ORB
*******************************************************************************
 
 
*******************************************************************************
Ephemeris / WWW_USER Sat Jun 20 08:07:47 2020 Pasadena, USA      / Horizons
*******************************************************************************
Target body name: 89 Julia (A866 PA)              {source: JPL#108}
Center body name: Solar System Barycenter (0)     {source: DE431}
Center-site name: BODY CENTER
*******************************************************************************
Start time      : A.D. 1969-Jun-28 00:00:00.0000 TDB
Stop  time      : A.D. 2071-May-04 00:00:00.0000 TDB
Step-size       : 7200 minutes
*******************************************************************************
Center geodetic : 0.00000000,0.00000000,0.0000000 {E-lon(deg),Lat(deg),Alt(km)}
Center cylindric: 0.00000000,0.00000000,0.0000000 {E-lon(deg),Dxy(km),Dz(km)}
Center radii    : (undefined)                                                  
Small perturbers: Yes                             {source: SB431-N16}
Output units    : AU-D
Output type     : GEOMETRIC cartesian states
Output format   : 2 (position and velocity)
Reference frame : Ecliptic of J2000.0
*******************************************************************************
Initial IAU76/J2000 heliocentric ecliptic osculating elements (au, days, deg.):
  EPOCH=  2453732.5 ! 2005-Dec-28.00 (TDB)         Residual RMS= .39308        
   EC= .1837312666221738   QR= 2.081866096774532   TP= 2453567.0609451835      
   OM= 311.6536862157482   W=  45.05611871166028   IN= 16.13919230327614       
  Equivalent ICRF heliocentric equatorial cartesian coordinates (au, au/d):
   X= 1.283466590686194E+00  Y= 1.341485658178903E+00  Z= 1.245966466692459E+00
  VX=-8.605673936892575E-03 VY= 8.002317089970967E-03 VZ= 3.251600265849475E-03
Asteroid physical parameters (km, seconds, rotational period in hours):        
   GM= n.a.                RAD= 72.7415            ROTPER= 11.387              
   H= 6.8                  G= .150                 B-V= .859                   
                           ALBEDO= .189            STYP= K                     
*******************************************************************************
            JDTDB,            Calendar Date (TDB),        delta-T,                      X,                      Y,                      Z,                     VX,                     VY,                     VZ,
******************************************************************************************************************************************************************************************************************
$$SOE
2472880.500000000, A.D. 2058-Jun-01 00:00:00.0000,      69.184940,  1.956722008749306E+00, -6.582948179657989E-01,  3.020868627620071E-01,  3.042383060811962E-03,  1.219831431572572E-02,  2.962825361119526E-03,
2472885.500000000, A.D. 2058-Jun-06 00:00:00.0000,      69.184820,  1.971137496441190E+00, -5.970461997069706E-01,  3.167767585449185E-01,  2.723228117561293E-03,  1.229953969464503E-02,  2.912705438022002E-03,
2472890.500000000, A.D. 2058-Jun-11 00:00:00.0000,      69.184694,  1.983948766324737E+00, -5.353155137141125E-01,  3.312096802392014E-01,  2.400759397259332E-03,  1.239111007958119E-02,  2.860043573969007E-03,
2472895.500000000, A.D. 2058-Jun-16 00:00:00.0000,      69.184564,  1.995140210679476E+00, -4.731514890924942E-01,  3.453730408644001E-01,  2.075363177708550E-03,  1.247284700981687E-02,  2.804889855503041E-03,
2472900.500000000, A.D. 2058-Jun-21 00:00:00.0000,      69.184432,  2.004698179288716E+00, -4.106036985926612E-01,  3.592545187373329E-01,  1.747435967238531E-03,  1.254459163611954E-02,  2.747300296270488E-03,
2472905.500000000, A.D. 2058-Jun-26 00:00:00.0000,      69.184297,  2.012611027297104E+00, -3.477224584136769E-01,  3.728420867971045E-01,  1.417383174117841E-03,  1.260620555955704E-02,  2.687336706893727E-03,
2472910.500000000, A.D. 2058-Jul-01 00:00:00.0000,      69.184159,  2.018869156235043E+00, -2.845587240733041E-01,  3.861240411910318E-01,  1.085617705543369E-03,  1.265757156450044E-02,  2.625066529561187E-03,
2472915.500000000, A.D. 2058-Jul-06 00:00:00.0000,      69.184018,  2.023465047883460E+00, -2.211639828942289E-01,  3.990890289468291E-01,  7.525585066058322E-04,  1.269859423800417E-02,  2.560562638101880E-03,
2472920.500000000, A.D. 2058-Jul-11 00:00:00.0000,      69.183876,  2.026393290706748E+00, -1.575901436914181E-01,  4.117260745612502E-01,  4.186290505433508E-04,  1.272920046897972E-02,  2.493903104726848E-03,
2472925.500000000, A.D. 2058-Jul-16 00:00:00.0000,      69.183738,  2.027650598640206E+00, -9.388942427545294E-02,  4.240246053423526E-01,  8.425579235818204E-05,  1.274933982185800E-02,  2.425170935035342E-03,
2472930.500000000, A.D. 2058-Jul-21 00:00:00.0000,      69.183602,  2.027235822080224E+00, -3.011423740983634E-02,  4.359744753515173E-01, -2.501334015647345E-04,  1.275898478079877E-02,  2.354453773274001E-03,
2472935.500000000, A.D. 2058-Jul-26 00:00:00.0000,      69.183469,  2.025149950989600E+00,  3.368292412360259E-02,  4.475659878022263E-01, -5.841108348285943E-04,  1.275813086194972E-02,  2.281843580201704E-03,
2472940.500000000, A.D. 2058-Jul-31 00:00:00.0000,      69.183339,  2.021396110096028E+00,  9.744960268830863E-02,  4.587899157852228E-01, -9.172505601810364E-04,  1.274679659274464E-02,  2.207436286253813E-03,
2472945.500000000, A.D. 2058-Aug-05 00:00:00.0000,      69.183211,  2.015979546227899E+00,  1.611334905213457E-01,  4.696375212039353E-01, -1.249129943235977E-03,  1.272502335869784E-02,  2.131331423006399E-03,
2472950.500000000, A.D. 2058-Aug-10 00:00:00.0000,      69.183090,  2.008907607897273E+00,  2.246825433679788E-01,  4.801005718196655E-01, -1.579331197756338E-03,  1.269287511951108E-02,  2.053631736163676E-03,
2472955.500000000, A.D. 2058-Aug-15 00:00:00.0000,      69.182977,  2.000189717303451E+00,  2.880450923761478E-01,  4.901713563222695E-01, -1.907442880163920E-03,  1.265043799753656E-02,  1.974442783285976E-03,
2472960.500000000, A.D. 2058-Aug-20 00:00:00.0000,      69.182872,  1.989837334989196E+00,  3.511699536232919E-01,  4.998426973575302E-01, -2.233061332261894E-03,  1.259781974320831E-02,  1.893872519218231E-03,
2472965.500000000, A.D. 2058-Aug-25 00:00:00.0000,      69.182775,  1.977863917433908E+00,  4.140065346770889E-01,  5.091079624575015E-01, -2.555792061964945E-03,  1.253514908459309E-02,  1.812030872505036E-03,
2472970.500000000, A.D. 2058-Aug-30 00:00:00.0000,      69.182685,  1.964284867921970E+00,  4.765049376326305E-01,  5.179610728400837E-01, -2.875251050417590E-03,  1.246257496981235E-02,  1.729029317567787E-03,
2472975.500000000, A.D. 2058-Sep-04 00:00:00.0000,      69.182604,  1.949117481084582E+00,  5.386160581093221E-01,  5.263965100692598E-01, -3.191065973825733E-03,  1.238026570957339E-02,  1.644980447402865E-03,
2472980.500000000, A.D. 2058-Sep-09 00:00:00.0000,      69.182533,  1.932380881561478E+00,  6.002916797252382E-01,  5.344093205856699E-01, -3.502877332880274E-03,  1.228840802707870E-02,  1.559997549315744E-03,
2472985.500000000, A.D. 2058-Sep-14 00:00:00.0000,      69.182474,  1.914095957255833E+00,  6.614845636106950E-01,  5.419951181278853E-01, -3.810339485229295E-03,  1.218720602575214E-02,  1.474194185968041E-03,
2472990.500000000, A.D. 2058-Sep-19 00:00:00.0000,      69.182427,  1.894285287680624E+00,  7.221485325793998E-01,  5.491500840794441E-01, -4.113121575467362E-03,  1.207688008644233E-02,  1.387683785265479E-03,
2472995.500000000, A.D. 2058-Sep-24 00:00:00.0000,      69.182392,  1.872973067922250E+00,  7.822385496324965E-01,  5.558709657948865E-01, -4.410908357525885E-03,  1.195766570518806E-02,  1.300579242598114E-03,
2473000.500000000, A.D. 2058-Sep-29 00:00:00.0000,      69.182366,  1.850185028768456E+00,  8.417107905254501E-01,  5.621550729738984E-01, -4.703400906172777E-03,  1.182981228240536E-02,  1.212992538264461E-03,
2473005.500000000, A.D. 2058-Oct-04 00:00:00.0000,      69.182352,  1.825948353559566E+00,  9.005227101821873E-01,  5.680002721653906E-01, -4.990317216045843E-03,  1.169358187442529E-02,  1.125034372364343E-03,
2473010.500000000, A.D. 2058-Oct-09 00:00:00.0000,      69.182350,  1.800291592326293E+00,  9.586331027955441E-01,  5.734049794936512E-01, -5.271392688086951E-03,  1.154924791828894E-02,  1.036813819008427E-03,
2473015.500000000, A.D. 2058-Oct-14 00:00:00.0000,      69.182362,  1.773244573774569E+00,  1.016002155507323E+00,  5.783681517068993E-01, -5.546380504609556E-03,  1.139709394058204E-02,  9.484380012762881E-04,
